CCSDS_OMM_VERS = 2.0
CREATION_DATE  = 
ORIGINATOR     = 

OBJECT_NAME    = SHIJIAN-30A
OBJECT_ID      = 2025-266A
CENTER_NAME    = EARTH
REF_FRAME      = TEME
TIME_SYSTEM    = UTC
MEAN_ELEMENT_THEORY = SGP/SGP4

EPOCH          = 2025-12-14T16:03:47.469888
MEAN_MOTION    = 15.15499825
ECCENTRICITY   = .0012881
INCLINATION    = 51.7981
RA_OF_ASC_NODE = 323.8228
ARG_OF_PERICENTER = 3.4113
MEAN_ANOMALY   = 356.6949

EPHEMERIS_TYPE = 0
CLASSIFICATION_TYPE = U
NORAD_CAT_ID   = 66545
ELEMENT_SET_NO = 999
REV_AT_EPOCH   = 387
BSTAR          = .55329E-3
MEAN_MOTION_DOT = .10334E-3
MEAN_MOTION_DDOT = 0

CCSDS_OMM_VERS = 2.0
CREATION_DATE  = 
ORIGINATOR     = 

OBJECT_NAME    = SHIJIAN-30B
OBJECT_ID      = 2025-266B
CENTER_NAME    = EARTH
REF_FRAME      = TEME
TIME_SYSTEM    = UTC
MEAN_ELEMENT_THEORY = SGP/SGP4

EPOCH          = 2025-12-14T16:05:29.027904
MEAN_MOTION    = 15.15472464
ECCENTRICITY   = .0010621
INCLINATION    = 51.7965
RA_OF_ASC_NODE = 323.8266
ARG_OF_PERICENTER = 6.7549
MEAN_ANOMALY   = 353.3568

EPHEMERIS_TYPE = 0
CLASSIFICATION_TYPE = U
NORAD_CAT_ID   = 66546
ELEMENT_SET_NO = 999
REV_AT_EPOCH   = 387
BSTAR          = .63956E-3
MEAN_MOTION_DOT = .1198E-3
MEAN_MOTION_DDOT = 0

CCSDS_OMM_VERS = 2.0
CREATION_DATE  = 
ORIGINATOR     = 

OBJECT_NAME    = SHIJIAN-30C
OBJECT_ID      = 2025-266C
CENTER_NAME    = EARTH
REF_FRAME      = TEME
TIME_SYSTEM    = UTC
MEAN_ELEMENT_THEORY = SGP/SGP4

EPOCH          = 2025-12-14T16:06:09.601344
MEAN_MOTION    = 15.15421542
ECCENTRICITY   = .0011477
INCLINATION    = 51.7975
RA_OF_ASC_NODE = 323.8314
ARG_OF_PERICENTER = 358.4064
MEAN_ANOMALY   = 1.6873

EPHEMERIS_TYPE = 0
CLASSIFICATION_TYPE = U
NORAD_CAT_ID   = 66547
ELEMENT_SET_NO = 999
REV_AT_EPOCH   = 387
BSTAR          = .569E-3
MEAN_MOTION_DOT = .10608E-3
MEAN_MOTION_DDOT = 0

CCSDS_OMM_VERS = 2.0
CREATION_DATE  = 
ORIGINATOR     = 

OBJECT_NAME    = CZ-2C R/B
OBJECT_ID      = 2025-266D
CENTER_NAME    = EARTH
REF_FRAME      = TEME
TIME_SYSTEM    = UTC
MEAN_ELEMENT_THEORY = SGP/SGP4

EPOCH          = 2025-12-14T07:11:38.707584
MEAN_MOTION    = 15.30220458
ECCENTRICITY   = .00838324
INCLINATION    = 52.0542
RA_OF_ASC_NODE = 323.8478
ARG_OF_PERICENTER = 178.4128
MEAN_ANOMALY   = 181.7140

EPHEMERIS_TYPE = 0
CLASSIFICATION_TYPE = U
NORAD_CAT_ID   = 66548
ELEMENT_SET_NO = 999
REV_AT_EPOCH   = 385
BSTAR          = .37091465E-3
MEAN_MOTION_DOT = .11867E-3
MEAN_MOTION_DDOT = 0

CCSDS_OMM_VERS = 2.0
CREATION_DATE  = 
ORIGINATOR     = 

OBJECT_NAME    = SHIJIAN-28
OBJECT_ID      = 2025-277A
CENTER_NAME    = EARTH
REF_FRAME      = TEME
TIME_SYSTEM    = UTC
MEAN_ELEMENT_THEORY = SGP/SGP4

EPOCH          = 2025-12-14T18:08:00.743424
MEAN_MOTION    = 1.00271477
ECCENTRICITY   = .0000886
INCLINATION    = 5.0134
RA_OF_ASC_NODE = 274.9249
ARG_OF_PERICENTER = 134.0426
MEAN_ANOMALY   = 63.5612

EPHEMERIS_TYPE = 0
CLASSIFICATION_TYPE = U
NORAD_CAT_ID   = 66549
ELEMENT_SET_NO = 999
REV_AT_EPOCH   = 30
BSTAR          = 0
MEAN_MOTION_DOT = -.338E-5
MEAN_MOTION_DDOT = 0

CCSDS_OMM_VERS = 2.0
CREATION_DATE  = 
ORIGINATOR     = 

OBJECT_NAME    = CZ-7A R/B
OBJECT_ID      = 2025-277B
CENTER_NAME    = EARTH
REF_FRAME      = TEME
TIME_SYSTEM    = UTC
MEAN_ELEMENT_THEORY = SGP/SGP4

EPOCH          = 2025-12-12T23:59:46.063680
MEAN_MOTION    = 2.69999213
ECCENTRICITY   = .70164962
INCLINATION    = 14.3833
RA_OF_ASC_NODE = 269.7494
ARG_OF_PERICENTER = 189.2871
MEAN_ANOMALY   = 143.2042

EPHEMERIS_TYPE = 0
CLASSIFICATION_TYPE = U
NORAD_CAT_ID   = 66550
ELEMENT_SET_NO = 999
REV_AT_EPOCH   = 35
BSTAR          = .22608485E-2
MEAN_MOTION_DOT = .1807848E-1
MEAN_MOTION_DDOT = -.255676E-6

CCSDS_OMM_VERS = 2.0
CREATION_DATE  = 
ORIGINATOR     = 

OBJECT_NAME    = USA 568
OBJECT_ID      = 2024-134K
CENTER_NAME    = EARTH
REF_FRAME      = TEME
TIME_SYSTEM    = UTC
MEAN_ELEMENT_THEORY = SGP/SGP4

EPOCH          = 2025-12-02T16:00:03.000096
MEAN_MOTION    = 15.87051116
ECCENTRICITY   = .0000717
INCLINATION    = 53.1571
RA_OF_ASC_NODE = 236.7807
ARG_OF_PERICENTER = 110.7411
MEAN_ANOMALY   = 313.9012

EPHEMERIS_TYPE = 0
CLASSIFICATION_TYPE = U
NORAD_CAT_ID   = 66551
ELEMENT_SET_NO = 999
REV_AT_EPOCH   = 262
BSTAR          = -.74303E-2
MEAN_MOTION_DOT = -.1709685E-1
MEAN_MOTION_DDOT = 0

CCSDS_OMM_VERS = 2.0
CREATION_DATE  = 
ORIGINATOR     = 

OBJECT_NAME    = GLOBAL-33
OBJECT_ID      = 2025-267A
CENTER_NAME    = EARTH
REF_FRAME      = TEME
TIME_SYSTEM    = UTC
MEAN_ELEMENT_THEORY = SGP/SGP4

EPOCH          = 2025-12-14T05:29:19.257504
MEAN_MOTION    = 15.31602676
ECCENTRICITY   = .00047698
INCLINATION    = 42.0183
RA_OF_ASC_NODE = 48.3968
ARG_OF_PERICENTER = 75.1530
MEAN_ANOMALY   = 284.9835

EPHEMERIS_TYPE = 0
CLASSIFICATION_TYPE = U
NORAD_CAT_ID   = 66554
ELEMENT_SET_NO = 999
REV_AT_EPOCH   = 363
BSTAR          = .88997621E-3
MEAN_MOTION_DOT = .27606E-3
MEAN_MOTION_DDOT = 0

CCSDS_OMM_VERS = 2.0
CREATION_DATE  = 
ORIGINATOR     = 

OBJECT_NAME    = ELECTRON KICK STAGE R/B
OBJECT_ID      = 2025-267B
CENTER_NAME    = EARTH
REF_FRAME      = TEME
TIME_SYSTEM    = UTC
MEAN_ELEMENT_THEORY = SGP/SGP4

EPOCH          = 2025-12-14T08:18:11.076192
MEAN_MOTION    = 15.32911414
ECCENTRICITY   = .00065234
INCLINATION    = 42.0199
RA_OF_ASC_NODE = 47.5443
ARG_OF_PERICENTER = 66.1906
MEAN_ANOMALY   = 293.9616

EPHEMERIS_TYPE = 0
CLASSIFICATION_TYPE = U
NORAD_CAT_ID   = 66555
ELEMENT_SET_NO = 999
REV_AT_EPOCH   = 365
BSTAR          = .82850914E-3
MEAN_MOTION_DOT = .26771E-3
MEAN_MOTION_DDOT = 0

CCSDS_OMM_VERS = 2.0
CREATION_DATE  = 
ORIGINATOR     = 

OBJECT_NAME    = STARLINK-35699
OBJECT_ID      = 2025-268A
CENTER_NAME    = EARTH
REF_FRAME      = TEME
TIME_SYSTEM    = UTC
MEAN_ELEMENT_THEORY = SGP/SGP4

EPOCH          = 2025-12-14T07:58:46.481088
MEAN_MOTION    = 15.50596378
ECCENTRICITY   = .00016026
INCLINATION    = 42.9996
RA_OF_ASC_NODE = 111.8847
ARG_OF_PERICENTER = 276.7562
MEAN_ANOMALY   = 83.3116

EPHEMERIS_TYPE = 0
CLASSIFICATION_TYPE = U
NORAD_CAT_ID   = 66557
ELEMENT_SET_NO = 999
REV_AT_EPOCH   = 487
BSTAR          = .19110213E-2
MEAN_MOTION_DOT = .113478E-2
MEAN_MOTION_DDOT = 0

CCSDS_OMM_VERS = 2.0
CREATION_DATE  = 
ORIGINATOR     = 

OBJECT_NAME    = STARLINK-35695
OBJECT_ID      = 2025-268B
CENTER_NAME    = EARTH
REF_FRAME      = TEME
TIME_SYSTEM    = UTC
MEAN_ELEMENT_THEORY = SGP/SGP4

EPOCH          = 2025-12-14T01:47:14.395488
MEAN_MOTION    = 15.50575573
ECCENTRICITY   = .00039742
INCLINATION    = 42.9996
RA_OF_ASC_NODE = 113.3889
ARG_OF_PERICENTER = 270.3907
MEAN_ANOMALY   = 89.6498

EPHEMERIS_TYPE = 0
CLASSIFICATION_TYPE = U
NORAD_CAT_ID   = 66558
ELEMENT_SET_NO = 999
REV_AT_EPOCH   = 483
BSTAR          = .15135693E-2
MEAN_MOTION_DOT = .89481E-3
MEAN_MOTION_DDOT = 0

CCSDS_OMM_VERS = 2.0
CREATION_DATE  = 
ORIGINATOR     = 

OBJECT_NAME    = STARLINK-35419
OBJECT_ID      = 2025-268C
CENTER_NAME    = EARTH
REF_FRAME      = TEME
TIME_SYSTEM    = UTC
MEAN_ELEMENT_THEORY = SGP/SGP4

EPOCH          = 2025-12-14T01:46:45.280416
MEAN_MOTION    = 15.50586290
ECCENTRICITY   = .0002097
INCLINATION    = 42.9995
RA_OF_ASC_NODE = 113.3872
ARG_OF_PERICENTER = 266.2883
MEAN_ANOMALY   = 93.7738

EPHEMERIS_TYPE = 0
CLASSIFICATION_TYPE = U
NORAD_CAT_ID   = 66559
ELEMENT_SET_NO = 999
REV_AT_EPOCH   = 483
BSTAR          = .22108214E-2
MEAN_MOTION_DOT = .131596E-2
MEAN_MOTION_DDOT = 0

CCSDS_OMM_VERS = 2.0
CREATION_DATE  = 
ORIGINATOR     = 

OBJECT_NAME    = STARLINK-35411
OBJECT_ID      = 2025-268D
CENTER_NAME    = EARTH
REF_FRAME      = TEME
TIME_SYSTEM    = UTC
MEAN_ELEMENT_THEORY = SGP/SGP4

EPOCH          = 2025-12-14T01:46:15.370464
MEAN_MOTION    = 15.50564560
ECCENTRICITY   = .00018763
INCLINATION    = 42.9996
RA_OF_ASC_NODE = 113.3853
ARG_OF_PERICENTER = 274.4813
MEAN_ANOMALY   = 85.5833

EPHEMERIS_TYPE = 0
CLASSIFICATION_TYPE = U
NORAD_CAT_ID   = 66560
ELEMENT_SET_NO = 999
REV_AT_EPOCH   = 483
BSTAR          = .14804679E-2
MEAN_MOTION_DOT = .87442E-3
MEAN_MOTION_DDOT = 0

CCSDS_OMM_VERS = 2.0
CREATION_DATE  = 
ORIGINATOR     = 

OBJECT_NAME    = STARLINK-35305
OBJECT_ID      = 2025-268E
CENTER_NAME    = EARTH
REF_FRAME      = TEME
TIME_SYSTEM    = UTC
MEAN_ELEMENT_THEORY = SGP/SGP4

EPOCH          = 2025-12-14T01:45:16.679808
MEAN_MOTION    = 15.50577223
ECCENTRICITY   = .00010117
INCLINATION    = 42.9991
RA_OF_ASC_NODE = 113.3780
ARG_OF_PERICENTER = 263.8473
MEAN_ANOMALY   = 96.2271

EPHEMERIS_TYPE = 0
CLASSIFICATION_TYPE = U
NORAD_CAT_ID   = 66561
ELEMENT_SET_NO = 999
REV_AT_EPOCH   = 483
BSTAR          = .21671346E-2
MEAN_MOTION_DOT = .128899E-2
MEAN_MOTION_DDOT = 0

CCSDS_OMM_VERS = 2.0
CREATION_DATE  = 
ORIGINATOR     = 

OBJECT_NAME    = STARLINK-35579
OBJECT_ID      = 2025-268F
CENTER_NAME    = EARTH
REF_FRAME      = TEME
TIME_SYSTEM    = UTC
MEAN_ELEMENT_THEORY = SGP/SGP4

EPOCH          = 2025-12-14T01:45:45.886464
MEAN_MOTION    = 15.50587495
ECCENTRICITY   = .00023012
INCLINATION    = 42.9997
RA_OF_ASC_NODE = 113.3810
ARG_OF_PERICENTER = 279.1651
MEAN_ANOMALY   = 80.8949

EPHEMERIS_TYPE = 0
CLASSIFICATION_TYPE = U
NORAD_CAT_ID   = 66562
ELEMENT_SET_NO = 999
REV_AT_EPOCH   = 483
BSTAR          = .24162498E-2
MEAN_MOTION_DOT = .144095E-2
MEAN_MOTION_DDOT = 0

